GALAXY 25 (G-25)        
1 24812C 97026A   22307.00000000  .00000087  00000-0  00000-0 0  3073
2 24812   4.0321  82.2727 0004989 164.5340 221.5684  1.00272787    13
GALAXY 25 (G-25)        
1 24812C 97026A   22311.00000000  .00000087  00000-0  00000-0 0  3113
2 24812   4.0425  82.1870 0005475 170.6646 219.4637  1.00272243    15
GALAXY 25 (G-25)    [PM]
1 24812C 97026A   22311.67626157  .00000087  00000-0  00000-0 0  3113
2 24812   4.0449  82.1785 0006523 177.4013  96.8659  1.00270267    19
INTELSAT 5 (IS-5)   [PM]
1 24916C 97046A   22301.00000000  .00000035  00000-0  00000-0 0  3011
2 24916   7.5120  60.1090 0004135 182.3470 320.0439  1.00270247    18
INTELSAT 5 (IS-5)       
1 24916C 97046A   22307.00000000  .00000035  00000-0  00000-0 0  3073
2 24916   7.5212  60.0815 0005108 188.3522 319.9932  1.00270711    10
INTELSAT 5 (IS-5)       
1 24916C 97046A   22311.00000000  .00000035  00000-0  00000-0 0  3113
2 24916   7.5322  60.0310 0005721 191.9116 320.4404  1.00268750    13
GALAXY 11 (G-11)        
1 26038C 99071A   22307.00000000 -.00000072  00000-0  00000-0 0  3072
2 26038   3.3651  85.8386 0002227 208.4878  14.8284  1.00270182    16
GALAXY 11 (G-11)        
1 26038C 99071A   22311.00000000 -.00000072  00000-0  00000-0 0  3112
2 26038   3.3760  85.7317 0002691 208.2509  19.1054  1.00271740    18
INTELSAT 9 (IS-9)   [PM]
1 26451C 00043A   22297.81041667 -.00000191  00000-0  00000-0 0  2973
2 26451   7.4861  60.2592 0004158 191.6573  23.0339  1.00276504    16
INTELSAT 9 (IS-9)       
1 26451C 00043A   22307.00000000 -.00000191  00000-0  00000-0 0  3074
2 26451   7.5053  60.2651 0006439 164.4749 127.5354  1.00268772    18
INTELSAT 9 (IS-9)       
1 26451C 00043A   22311.00000000 -.00000191  00000-0  00000-0 0  3114
2 26451   7.5164  60.2155 0006528 169.0345 126.9742  1.00268229    13
INTELSAT 1R (IS-1R)     
1 26608C 00072A   22307.00000000 -.00000047  00000-0  00000-0 0  3070
2 26608   4.7624  79.4756 0000882 315.1737 164.7120  1.00267287    15
INTELSAT 1R (IS-1R)     
1 26608C 00072A   22311.00000000 -.00000047  00000-0  00000-0 0  3110
2 26608   4.7711  79.3900 0000932 282.6426 201.2596  1.00269090    19
INTELSAT 10 (IS-10)     
1 26766C 01019A   22307.00000000  .00000127  00000-0  00000-0 0  3075
2 26766   5.9034  72.1643 0003095 173.1019 334.7844  1.00269375    19
INTELSAT 10 (IS-10)     
1 26766C 01019A   22311.00000000  .00000127  00000-0  00000-0 0  3115
2 26766   5.9148  72.0965 0003642 182.5257 329.3687  1.00271997    15
INTELSAT 10 (IS-10) [PM]
1 26766C 01019A   22313.74839120  .00000127  00000-0  00000-0 0  3133
2 26766   5.9234  72.0771 0003090 153.3110 270.7439  1.00271075    18
INTELSAT 901            
1 26824C 01024A   22307.00000000 -.00000113  00000-0  00000-0 0  3072
2 26824   0.0440  75.7203 0000939 137.8505 161.2052  1.00269705    14
INTELSAT 901            
1 26824C 01024A   22311.00000000 -.00000117  00000-0  00000-0 0  3116
2 26824   0.0076 129.5760 0001150 116.6050 132.5306  1.00270360    13
INTELSAT 902            
1 26900C 01039A   22307.00000000 -.00000192  00000-0  00000-0 0  3070
2 26900   2.7502  87.4743 0003653 149.2425 115.4482  1.00271287    16
INTELSAT 902            
1 26900C 01039A   22311.00000000 -.00000192  00000-0  00000-0 0  3110
2 26900   2.7610  87.3475 0004067 159.1701 109.5840  1.00270789    12
INTELSAT 902        [PM]
1 26900C 01039A   22312.32069444 -.00000192  00000-0  00000-0 0  3124
2 26900   2.7339 201.4313 0003821 157.2977 114.1381  1.00272126    10
INTELSAT 902        [PM]
1 26900C 01039A   22318.86942130 -.00000192  00000-0  00000-0 0  3187
2 26900   2.7820  87.3334 0003743 166.3132  63.2034  1.00273514    17
INTELSAT 904            
1 27380C 02007A   22307.00000000 -.00000123  00000-0  00000-0 0  3073
2 27380   3.5804  84.4648 0003592 143.0873 145.2204  1.00269968    11
INTELSAT 904            
1 27380C 02007A   22311.00000000 -.00000123  00000-0  00000-0 0  3113
2 27380   3.5915  84.3608 0003831 151.9374 140.4094  1.00271583    19
INTELSAT 904        [PM]
1 27380C 02007A   22317.30689815 -.00000123  00000-0  00000-0 0  3175
2 27380   3.5976 193.6149 0003441 151.8919 147.9245  1.00271008    13
INTELSAT 905        [PM]
1 27438C 02027A   22304.67468750 -.00000094  00000-0  00000-0 0  3043
2 27438   3.3991  85.2170 0002071 127.4203  45.7197  1.00271515    19
INTELSAT 905            
1 27438C 02027A   22307.00000000 -.00000094  00000-0  00000-0 0  3076
2 27438   3.4028  85.1960 0003181 133.6618 158.9097  1.00270489    14
INTELSAT 905            
1 27438C 02027A   22311.00000000 -.00000094  00000-0  00000-0 0  3116
2 27438   3.4138  85.0883 0003367 145.8992 150.7162  1.00270754    13
GALAXY 3C (G-3C)        
1 27445C 02030A   22307.00000000 -.00000062  00000-0  00000-0 0  3073
2 27445   0.3286  90.9459 0000537 206.4783   9.9760  1.00271393    12
GALAXY 3C (G-3C)        
1 27445C 02030A   22311.00000000 -.00000062  00000-0  00000-0 0  3113
2 27445   0.3385  90.4580 0001084 205.3947  15.4975  1.00272127    16
INTELSAT 906            
1 27513C 02041A   22307.00000000  .00000105  00000-0  00000-0 0  3078
2 27513   2.4199  88.8980 0003683 135.8985 241.6001  1.00271611    19
INTELSAT 906            
1 27513C 02041A   22311.00000000  .00000105  00000-0  00000-0 0  3118
2 27513   2.4303  88.7681 0003933 146.7235 234.8443  1.00273275    12
INTELSAT 906        [PM]
1 27513C 02041A   22315.22184028  .00000105  00000-0  00000-0 0  3153
2 27513   2.4437  88.7320 0003869 153.1423 312.5134  1.00270349    19
GALAXY 12 (G-12)        
1 27715C 03013B   22307.00000000  .00000149  00000-0  00000-0 0  3070
2 27715   3.6133  84.1089 0001886 166.9492  22.1891  1.00269786    13
GALAXY 12 (G-12)        
1 27715C 03013B   22311.00000000  .00000149  00000-0  00000-0 0  3110
2 27715   3.6242  84.0099 0002401 177.1784  15.9808  1.00272275    11
GALAXY 12 (G-12)    [PM]
1 27715C 03013B   22319.55831019  .00000148  00000-0  00000-0 0  3197
2 27715   3.6161 284.4290 0001890 164.0227  38.2095  1.00270307    18
GALAXY 23 (G-23)        
1 27854C 03034A   22307.00000000  .00000106  00000-0  00000-0 0  3070
2 27854   0.0082 219.3051 0003299   8.4937  53.4667  1.00270569    15
GALAXY 23 (G-23)        
1 27854C 03034A   22311.00000000 -.00000073  00000-0  00000-0 0  3114
2 27854   0.0019 235.7164 0003658   3.5752  45.9160  1.00272287    15
GALAXY 23 (G-23)    [PM]
1 27854C 03034A   22312.04440972  .00000119  00000-0  00000-0 0  3126
2 27854   0.0396  86.0366 0003341 161.0808  55.1005  1.00272429    14
GALAXY 23 (G-23)    [PM]
1 27854C 03034A   22313.54366898  .00000011  00000-0  00000-0 0  3138
2 27854   0.0369 108.9175 0003336 124.3279 250.1862  1.00272869    10
GALAXY 13               
1 27954C 03044A   22307.00000000  .00000139  00000-0  00000-0 0  3078
2 27954   0.0401  74.9508 0001157 104.6222  95.6581  1.00268836    17
GALAXY 13               
1 27954C 03044A   22311.00000000  .00000091  00000-0  00000-0 0  3115
2 27954   0.0028 153.3919 0000779 179.4579 306.3425  1.00272626    15
INTELSAT 10-02          
1 28358C 04022A   22307.00000000  .00000051  00000-0  00000-0 0  3077
2 28358   0.0276  72.0483 0000867 154.5688 174.6577  1.00269895    13
INTELSAT 10-02          
1 28358C 04022A   22311.00000000  .00000165  00000-0  00000-0 0  3113
2 28358   0.0092 345.5580 0001222 267.2273 152.4198  1.00270819    14
GALAXY 28 (G-28)        
1 28702C 05022A   22307.00000000 -.00000096  00000-0  00000-0 0  3071
2 28702   0.0121 302.3696 0001943 305.8876  65.0035  1.00271803    10
GALAXY 28 (G-28)    [PM]
1 28702C 05022A   22307.00886574 -.00000096  00000-0  00000-0 0  3079
2 28702   0.0121 302.3324 0001946 305.7753  68.3535  1.00271799    19
GALAXY 28 (G-28)        
1 28702C 05022A   22311.00000000 -.00000096  00000-0  00000-0 0  3111
2 28702   0.0165 339.9095 0002499 282.2334  55.0662  1.00272148    19
GALAXY 14 (G-14)        
1 28790C 05030A   22307.00000000  .00000246  00000-0  00000-0 0  3073
2 28790   1.6088  90.7391 0002150 120.5051 223.9174  1.00270117    10
GALAXY 14 (G-14)        
1 28790C 05030A   22311.00000000  .00000246  00000-0  00000-0 0  3113
2 28790   1.6193  90.5650 0002289 136.9976 211.5387  1.00273095    10
GALAXY 14 (G-14)    [PM]
1 28790C 05030A   22314.13194444  .00000246  00000-0  00000-0 0  3149
2 28790   1.6294  90.5192 0002179 133.2348 265.9570  1.00269478    11
GALAXY 15 (G-15)        
1 28884C 05041A   22307.00000000  .00000147  00000-0  00000-0 0  3079
2 28884   0.1628  91.4907 0003545 151.7686  30.2691  1.00298123    18
GALAXY 15 (G-15)        
1 28884C 05041A   22311.00000000  .00000145  00000-0  00000-0 0  3117
2 28884   0.1728  90.5688 0003981 160.0275  27.2762  1.00300502    16
GALAXY 16 (G-16)        
1 29236C 06023A   22307.00000000 -.00000037  00000-0  00000-0 0  3071
2 29236   0.0217 254.9290 0002660 319.6488  88.6786  1.00268640    19
GALAXY 16 (G-16)    [PM]
1 29236C 06023A   22308.41528935 -.00000037  00000-0  00000-0 0  3080
2 29236   0.0187 255.3126 0002795 323.4946 235.3473  1.00271704    18
GALAXY 16 (G-16)        
1 29236C 06023A   22311.00000000 -.00000037  00000-0  00000-0 0  3111
2 29236   0.0112 261.2109 0002836 327.1094  78.8779  1.00271895    14
GALAXY 17 (G-17)        
1 31307C 07016B   22307.00000000 -.00000105  00000-0  00000-0 0  3072
2 31307   0.0150 132.5248 0002965  91.6673  87.0757  1.00281246    10
GALAXY 17 (G-17)        
1 31307C 07016B   22311.00000000 -.00000172  00000-0  00000-0 0  3116
2 31307   0.0335  35.2928 0002906 194.9059  85.0107  1.00270985    14
GALAXY 17 (G-17)    [PM]
1 31307C 07016B   22313.94000000 -.00000089  00000-0  00000-0 0  3130
2 31307   0.0176 324.0521 0002844 270.3522  62.0883  1.00272916    12
INTELSAT 11 (IS-11)     
1 32253C 07044B   22307.00000000 -.00000178  00000-0  00000-0 0  3074
2 32253   0.1365  93.2812 0002219 139.9832 125.9875  1.00272352    16
